[
  {
    "province": "เชียงใหม่",
    "districts": [
      {
        "name": "เมืองเชียงใหม่",
        "subdistricts": [
          { "name": "ศรีภูมิ", "zipcode": "50200" },
          { "name": "พระสิงห์", "zipcode": "50200" },
          { "name": "หายยา", "zipcode": "50100" },
          { "name": "ช้างม่อย", "zipcode": "50300" },
          { "name": "ช้างคลาน", "zipcode": "50100" },
          { "name": "วัดเกต", "zipcode": "50000" },
          { "name": "ช้างเผือก", "zipcode": "50300" },
          { "name": "สุเทพ", "zipcode": "50200" },
          { "name": "แม่เหียะ", "zipcode": "50100" },
          { "name": "ป่าแดด", "zipcode": "50100" },
          { "name": "หนองหอย", "zipcode": "50000" },
          { "name": "ท่าศาลา", "zipcode": "50000" },
          { "name": "หนองป่าครั่ง", "zipcode": "50000" },
          { "name": "ฟ้าฮ่าม", "zipcode": "50000" },
          { "name": "ป่าตัน", "zipcode": "50300" },
          { "name": "สันผีเสื้อ", "zipcode": "50300" }
        ]
      },
      {
        "name": "หางดง",
        "subdistricts": [
          { "name": "หางดง", "zipcode": "50230" }
        ]
      },
      {
        "name": "จอมทอง",
        "subdistricts": [
          { "name": "ข่วงเปา", "zipcode": "50160" },
          { "name": "ดอยแก้ว", "zipcode": "50160" },
          { "name": "บ้านหลวง", "zipcode": "50160" },
          { "name": "แม่สอย", "zipcode": "50160" }
        ]
      },
      {
        "name": "แม่แจ่ม",
        "subdistricts": [
          { "name": "แม่แจ่ม", "zipcode": "50270" }
        ]
      },
      {
        "name": "เชียงดาว",
        "subdistricts": [
          { "name": "เชียงดาว", "zipcode": "50170" }
        ]
      },
      {
        "name": "ดอยสะเก็ด",
        "subdistricts": [
          { "name": "ดอยสะเก็ด", "zipcode": "50220" }
        ]
      },
      {
        "name": "แม่แตง",
        "subdistricts": [
          { "name": "แม่แตง", "zipcode": "50150" }
        ]
      },
      {
        "name": "แม่ริม",
        "subdistricts": [
          { "name": "แม่ริม", "zipcode": "50180" }
        ]
      },
      {
        "name": "สะเมิง",
        "subdistricts": [
          { "name": "สะเมิง", "zipcode": "50250" }
        ]
      },
      {
        "name": "ฝาง",
        "subdistricts": [
          { "name": "ฝาง", "zipcode": "50110" }
        ]
      },
      {
        "name": "แม่อาย",
        "subdistricts": [
          { "name": "แม่อาย", "zipcode": "50280" }
        ]
      },
      {
        "name": "พร้าว",
        "subdistricts": [
          { "name": "พร้าว", "zipcode": "50190" }
        ]
      },
      {
        "name": "สันป่าตอง",
        "subdistricts": [
          { "name": "สันป่าตอง", "zipcode": "50120" }
        ]
      },
      {
        "name": "สันกำแพง",
        "subdistricts": [
          { "name": "สันกำแพง", "zipcode": "50130" }
        ]
      },
      {
        "name": "สันทราย",
        "subdistricts": [
          { "name": "สันทราย", "zipcode": "50210" }
        ]
      },
      {
        "name": "ฮอด",
        "subdistricts": [
          { "name": "ฮอด", "zipcode": "50240" }
        ]
      },
      {
        "name": "ดอยเต่า",
        "subdistricts": [
          { "name": "ดอยเต่า", "zipcode": "50260" }
        ]
      },
      {
        "name": "อมก๋อย",
        "subdistricts": [
          { "name": "อมก๋อย", "zipcode": "50310" }
        ]
      },
      {
        "name": "สารภี",
        "subdistricts": [
          { "name": "สารภี", "zipcode": "50140" }
        ]
      },
      {
        "name": "เวียงแหง",
        "subdistricts": [
          { "name": "เวียงแหง", "zipcode": "50350" }
        ]
      },
      {
        "name": "ไชยปราการ",
        "subdistricts": [
          { "name": "ไชยปราการ", "zipcode": "50320" }
        ]
      },
      {
        "name": "แม่วาง",
        "subdistricts": [
          { "name": "แม่วาง", "zipcode": "50360" }
        ]
      },
      {
        "name": "แม่ออน",
        "subdistricts": [
          { "name": "แม่ออน", "zipcode": "50130" }
        ]
      },
      {
        "name": "ดอยหล่อ",
        "subdistricts": [
          { "name": "ดอยหล่อ", "zipcode": "50160" }
        ]
      },
      {
        "name": "กัลยาณิวัฒนา",
        "subdistricts": [
          { "name": "กัลยาณิวัฒนา", "zipcode": "58130" }
        ]
      }
    ]
  },
  {
    "province": "กรุงเทพมหานคร",
    "districts": [
      {
        "name": "พระนคร",
        "subdistricts": [
          { "name": "พระนคร", "zipcode": "10200" }
        ]
      },
      {
        "name": "ดุสิต",
        "subdistricts": [
          { "name": "ดุสิต", "zipcode": "10300" }
        ]
      },
      {
        "name": "หนองจอก",
        "subdistricts": [
          { "name": "หนองจอก", "zipcode": "10530" }
        ]
      },
      {
        "name": "บางรัก",
        "subdistricts": [
          { "name": "บางรัก", "zipcode": "10500" }
        ]
      },
      {
        "name": "บางเขน",
        "subdistricts": [
          { "name": "บางเขน", "zipcode": "10220" }
        ]
      },
      {
        "name": "บางกะปิ",
        "subdistricts": [
          { "name": "บางกะปิ", "zipcode": "10240" }
        ]
      },
      {
        "name": "ปทุมวัน",
        "subdistricts": [
          { "name": "ปทุมวัน", "zipcode": "10330" }
        ]
      },
      {
        "name": "ป้อมปราบศัตรูพ่าย",
        "subdistricts": [
          { "name": "ป้อมปราบศัตรูพ่าย", "zipcode": "10100" }
        ]
      },
      {
        "name": "พระโขนง",
        "subdistricts": [
          { "name": "พระโขนง", "zipcode": "10260" }
        ]
      },
      {
        "name": "มีนบุรี",
        "subdistricts": [
          { "name": "มีนบุรี", "zipcode": "10510" }
        ]
      },
      {
        "name": "ลาดกระบัง",
        "subdistricts": [
          { "name": "ลาดกระบัง", "zipcode": "10520" }
        ]
      },
      {
        "name": "ยานนาวา",
        "subdistricts": [
          { "name": "ยานนาวา", "zipcode": "10120" }
        ]
      },
      {
        "name": "สัมพันธวงศ์",
        "subdistricts": [
          { "name": "สัมพันธวงศ์", "zipcode": "10100" }
        ]
      },
      {
        "name": "พญาไท",
        "subdistricts": [
          { "name": "พญาไท", "zipcode": "10400" }
        ]
      },
      {
        "name": "ธนบุรี",
        "subdistricts": [
          { "name": "ธนบุรี", "zipcode": "10600" }
        ]
      },
      {
        "name": "บางกอกใหญ่",
        "subdistricts": [
          { "name": "บางกอกใหญ่", "zipcode": "10600" }
        ]
      },
      {
        "name": "ห้วยขวาง",
        "subdistricts": [
          { "name": "ห้วยขวาง", "zipcode": "10310" }
        ]
      },
      {
        "name": "คลองสาน",
        "subdistricts": [
          { "name": "คลองสาน", "zipcode": "10600" }
        ]
      },
      {
        "name": "ตลิ่งชัน",
        "subdistricts": [
          { "name": "ตลิ่งชัน", "zipcode": "10170" }
        ]
      },
      {
        "name": "บางกอกน้อย",
        "subdistricts": [
          { "name": "บางกอกน้อย", "zipcode": "10700" }
        ]
      },
      {
        "name": "บางขุนเทียน",
        "subdistricts": [
          { "name": "บางขุนเทียน", "zipcode": "10150" }
        ]
      },
      {
        "name": "ภาษีเจริญ",
        "subdistricts": [
          { "name": "ภาษีเจริญ", "zipcode": "10160" }
        ]
      },
      {
        "name": "หนองแขม",
        "subdistricts": [
          { "name": "หนองแขม", "zipcode": "10160" }
        ]
      },
      {
        "name": "ราษฎร์บูรณะ",
        "subdistricts": [
          { "name": "ราษฎร์บูรณะ", "zipcode": "10140" }
        ]
      },
      {
        "name": "บางพลัด",
        "subdistricts": [
          { "name": "บางพลัด", "zipcode": "10700" }
        ]
      },
      {
        "name": "ดินแดง",
        "subdistricts": [
          { "name": "ดินแดง", "zipcode": "10400" }
        ]
      },
      {
        "name": "บึงกุ่ม",
        "subdistricts": [
          { "name": "บึงกุ่ม", "zipcode": "10240" }
        ]
      },
      {
        "name": "สาทร",
        "subdistricts": [
          { "name": "สาทร", "zipcode": "10120" }
        ]
      },
      {
        "name": "บางซื่อ",
        "subdistricts": [
          { "name": "บางซื่อ", "zipcode": "10800" }
        ]
      },
      {
        "name": "จตุจักร",
        "subdistricts": [
          { "name": "จตุจักร", "zipcode": "10900" }
        ]
      },
      {
        "name": "บางคอแหลม",
        "subdistricts": [
          { "name": "บางคอแหลม", "zipcode": "10120" }
        ]
      },
      {
        "name": "ประเวศ",
        "subdistricts": [
          { "name": "ประเวศ", "zipcode": "10250" }
        ]
      },
      {
        "name": "คลองเตย",
        "subdistricts": [
          { "name": "คลองเตย", "zipcode": "10110" }
        ]
      },
      {
        "name": "สวนหลวง",
        "subdistricts": [
          { "name": "สวนหลวง", "zipcode": "10250" }
        ]
      },
      {
        "name": "จอมทอง",
        "subdistricts": [
          { "name": "จอมทอง", "zipcode": "10150" }
        ]
      },
      {
        "name": "ดอนเมือง",
        "subdistricts": [
          { "name": "ดอนเมือง", "zipcode": "10210" }
        ]
      },
      {
        "name": "ราชเทวี",
        "subdistricts": [
          { "name": "ราชเทวี", "zipcode": "10400" }
        ]
      },
      {
        "name": "ลาดพร้าว",
        "subdistricts": [
          { "name": "ลาดพร้าว", "zipcode": "10230" }
        ]
      },
      {
        "name": "วัฒนา",
        "subdistricts": [
          { "name": "วัฒนา", "zipcode": "10110" }
        ]
      },
      {
        "name": "บางแค",
        "subdistricts": [
          { "name": "บางแค", "zipcode": "10160" }
        ]
      },
      {
        "name": "หลักสี่",
        "subdistricts": [
          { "name": "หลักสี่", "zipcode": "10210" }
        ]
      },
      {
        "name": "สายไหม",
        "subdistricts": [
          { "name": "สายไหม", "zipcode": "10220" }
        ]
      },
      {
        "name": "คันนายาว",
        "subdistricts": [
          { "name": "คันนายาว", "zipcode": "10230" }
        ]
      },
      {
        "name": "สะพานสูง",
        "subdistricts": [
          { "name": "สะพานสูง", "zipcode": "10240" }
        ]
      },
      {
        "name": "วังทองหลาง",
        "subdistricts": [
          { "name": "วังทองหลาง", "zipcode": "10310" }
        ]
      },
      {
        "name": "คลองสามวา",
        "subdistricts": [
          { "name": "คลองสามวา", "zipcode": "10510" }
        ]
      },
      {
        "name": "บางนา",
        "subdistricts": [
          { "name": "บางนา", "zipcode": "10260" }
        ]
      },
      {
        "name": "ทวีวัฒนา",
        "subdistricts": [
          { "name": "ทวีวัฒนา", "zipcode": "10170" }
        ]
      },
      {
        "name": "ทุ่งครุ",
        "subdistricts": [
          { "name": "ทุ่งครุ", "zipcode": "10140" }
        ]
      },
      {
        "name": "บางบอน",
        "subdistricts": [
          { "name": "บางบอน", "zipcode": "10150" }
        ]
      }
    ]
  },
  {
    "province": "นนทบุรี",
    "districts": [
      {
        "name": "เมืองนนทบุรี",
        "subdistricts": [
          { "name": "สวนใหญ่", "zipcode": "11000" },
          { "name": "ตลาดขวัญ", "zipcode": "11000" },
          { "name": "บางเขน", "zipcode": "11000" },
          { "name": "บางกระสอ", "zipcode": "11000" },
          { "name": "ท่าทราย", "zipcode": "11000" },
          { "name": "บางไผ่", "zipcode": "11000" },
          { "name": "บางศรีเมือง", "zipcode": "11000" },
          { "name": "บางกร่าง", "zipcode": "11000" },
          { "name": "ไทรม้า", "zipcode": "11000" },
          { "name": "บางรักน้อย", "zipcode": "11000" }
        ]
      },
      {
        "name": "บางกรวย",
        "subdistricts": [
          { "name": "วัดชลอ", "zipcode": "11130" },
          { "name": "บางกรวย", "zipcode": "11130" },
          { "name": "บางสีทอง", "zipcode": "11130" },
          { "name": "บางขนุน", "zipcode": "11130" },
          { "name": "บางขุนกอง", "zipcode": "11130" },
          { "name": "บางคูเวียง", "zipcode": "11130" },
          { "name": "มหาสวัสดิ์", "zipcode": "11130" },
          { "name": "ปลายบาง", "zipcode": "11130" },
          { "name": "ศาลากลาง", "zipcode": "11130" }
        ]
      },
      {
        "name": "บางใหญ่",
        "subdistricts": [
          { "name": "บางม่วง", "zipcode": "11140" },
          { "name": "บางแม่นาง", "zipcode": "11140" },
          { "name": "บางเลน", "zipcode": "11140" },
          { "name": "บางใหญ่", "zipcode": "11140" },
          { "name": "บ้านใหม่", "zipcode": "11140" },
          { "name": "เสาธงหิน", "zipcode": "11140" }
        ]
      },
      {
        "name": "บางบัวทอง",
        "subdistricts": [
          { "name": "บางบัวทอง", "zipcode": "11110" },
          { "name": "บางรักใหญ่", "zipcode": "11110" },
          { "name": "บางคูรัด", "zipcode": "11110" },
          { "name": "ละหาร", "zipcode": "11110" },
          { "name": "ลำโพ", "zipcode": "11110" },
          { "name": "พิมลราช", "zipcode": "11110" },
          { "name": "บางรักพัฒนา", "zipcode": "11110" },
          { "name": "โสนลอย", "zipcode": "11110" }
        ]
      },
      {
        "name": "ไทรน้อย",
        "subdistricts": [
          { "name": "ไทรน้อย", "zipcode": "11150" },
          { "name": "ไทรใหญ่", "zipcode": "11150" },
          { "name": "ขุนศรี", "zipcode": "11150" },
          { "name": "คลองขวาง", "zipcode": "11150" },
          { "name": "ทวีวัฒนา", "zipcode": "11150" },
          { "name": "ราษฎร์นิยม", "zipcode": "11150" },
          { "name": "หนองเพรางาย", "zipcode": "11150" }
        ]
      },
      {
        "name": "ปากเกร็ด",
        "subdistricts": [
          { "name": "ปากเกร็ด", "zipcode": "11120" },
          { "name": "บางตลาด", "zipcode": "11120" },
          { "name": "บ้านใหม่", "zipcode": "11120" },
          { "name": "บางพูด", "zipcode": "11120" },
          { "name": "บางตะไนย์", "zipcode": "11120" },
          { "name": "คลองพระอุดม", "zipcode": "11120" },
          { "name": "ท่าอิฐ", "zipcode": "11120" },
          { "name": "เกาะเกร็ด", "zipcode": "11120" },
          { "name": "อ้อมเกร็ด", "zipcode": "11120" },
          { "name": "คลองข่อย", "zipcode": "11120" },
          { "name": "บางพลับ", "zipcode": "11120" },
          { "name": "คลองเกลือ", "zipcode": "11120" }
        ]
      }
    ]
  },
  {
    "province": "ชลบุรี",
    "districts": [
      {
        "name": "เมืองชลบุรี",
        "subdistricts": [
          { "name": "บางปลาสร้อย", "zipcode": "20000" },
          { "name": "เสม็ด", "zipcode": "20000" },
          { "name": "หนองรี", "zipcode": "20000" },
          { "name": "บ้านปึก", "zipcode": "20000" },
          { "name": "บางทราย", "zipcode": "20000" },
          { "name": "หนองไม้แดง", "zipcode": "20000" },
          { "name": "แสนสุข", "zipcode": "20130" }
        ]
      },
      {
        "name": "บางละมุง",
        "subdistricts": [
          { "name": "บางละมุง", "zipcode": "20150" },
          { "name": "นาเกลือ", "zipcode": "20150" },
          { "name": "หนองปรือ", "zipcode": "20150" },
          { "name": "โป่ง", "zipcode": "20150" },
          { "name": "ห้วยใหญ่", "zipcode": "20250" }
        ]
      },
      {
        "name": "พานทอง",
        "subdistricts": [
          { "name": "บ้านเก่า", "zipcode": "20160" },
          { "name": "หนองตำลึง", "zipcode": "20160" },
          { "name": "หนองขาม", "zipcode": "20160" },
          { "name": "หนองขาม", "zipcode": "20160" },
          { "name": "ห้วยกะปิ", "zipcode": "20160" },
          { "name": "พานทอง", "zipcode": "20160" }
        ]
      },
      {
        "name": "สัตหีบ",
        "subdistricts": [
          { "name": "สัตหีบ", "zipcode": "20180" },
          { "name": "พลูตาหลวง", "zipcode": "20180" },
          { "name": "นาจอมเทียน", "zipcode": "20250" }
        ]
      },
      {
        "name": "บ้านบึง",
        "subdistricts": [
          { "name": "บ้านบึง", "zipcode": "20170" },
          { "name": "หนองชาก", "zipcode": "20170" },
          { "name": "หนองซ้ำซาก", "zipcode": "20170" }
        ]
      },
      {
        "name": "เกาะสีชัง",
        "subdistricts": [
          { "name": "เกาะสีชัง", "zipcode": "20220" }
        ]
      },
      {
        "name": "บ่อทอง",
        "subdistricts": [
          { "name": "บ่อทอง", "zipcode": "20160" },
          { "name": "มาบโป่ง", "zipcode": "20160" }
        ]
      },
      {
        "name": "พลูตาหลวง",
        "subdistricts": [
          { "name": "พลูตาหลวง", "zipcode": "20180" }
        ]
      },
      {
        "name": "หนองใหญ่",
        "subdistricts": [
          { "name": "หนองใหญ่", "zipcode": "20190" }
        ]
      },
      {
        "name": "หนองใหญ่",
        "subdistricts": [
          { "name": "หนองใหญ่", "zipcode": "20190" }
        ]
      }
    ]
  }
]
